[{"OBJECT_NAME":"STARLINK-35973","OBJECT_ID":"2025-271R","EPOCH":"2026-03-09T11:21:39.053088","MEAN_MOTION":15.30203912,"ECCENTRICITY":9.323e-5,"INCLINATION":53.1577,"RA_OF_ASC_NODE":140.9367,"ARG_OF_PERICENTER":72.1712,"MEAN_ANOMALY":287.9391,"EPHEMERIS_TYPE":0,"CLASSIFICATION_TYPE":"U","NORAD_CAT_ID":66632,"ELEMENT_SET_NO":999,"REV_AT_EPOCH":1749,"BSTAR":0.00082798453,"MEAN_MOTION_DOT":0.00024246,"MEAN_MOTION_DDOT":0},{"OBJECT_NAME":"PUCP-SAT 1","OBJECT_ID":"2013-066AC","EPOCH":"2026-03-09T22:02:13.763904","MEAN_MOTION":15.29426022,"ECCENTRICITY":0.00136836,"INCLINATION":97.5787,"RA_OF_ASC_NODE":61.0032,"ARG_OF_PERICENTER":300.1183,"MEAN_ANOMALY":59.87,"EPHEMERIS_TYPE":0,"CLASSIFICATION_TYPE":"U","NORAD_CAT_ID":39442,"ELEMENT_SET_NO":999,"REV_AT_EPOCH":66907,"BSTAR":0.00088755185,"MEAN_MOTION_DOT":0.00025373,"MEAN_MOTION_DDOT":0}]
